FLOCK 3P-56             
1 42042U 17008CY  18042.63460549  .00002263  00000-0  95141-4 0  9997
2 42042  97.4661 108.4040 0009007 100.0111 260.2143 15.24432875 54798
FLOCK 3P-81             
1 42043U 17008CZ  18042.79290952  .00001111  00000-0  48912-4 0  9999
2 42043  97.4688 108.4885 0009870  81.9665 278.2692 15.23930109 54198
FLOCK 3P-87             
1 42044U 17008DA  18042.80546175  .00001039  00000-0  45972-4 0  9995
2 42044  97.4683 108.4527 0009993  79.5273 280.7089 15.23895004 54340
FLOCK 3P-29             
1 42045U 17008DB  18042.80648339  .00001082  00000-0  47694-4 0  9992
2 42045  97.4666 108.3656 0009639  77.2919 282.9395 15.23926305 54199
FLOCK 3P-82             
1 42046U 17008DC  18043.71526867  .00002166  00000-0  92011-4 0  9992
2 42046  97.4684 109.3895 0009951  77.4660 282.7690 15.24113542 54387
FLOCK 3P-78             
1 42047U 17008DD  18043.65756393  .00001314  00000-0  57341-4 0  9996
2 42047  97.4685 109.3186 0009887  77.1634 283.0708 15.23894064 54308
FLOCK 3P-74             
1 42048U 17008DE  18043.73378685  .00001386  00000-0  60297-4 0  9993
2 42048  97.4686 109.3819 0010197  77.6595 282.5783 15.23904083 54311
FLOCK 3P-31             
1 42049U 17008DF  18043.47248980  .00001486  00000-0  64459-4 0  9994
2 42049  97.4664 109.0086 0009732  76.2241 284.0078 15.23907182 53739
FLOCK 3P-83             
1 42050U 17008DG  18042.75145107  .00001713  00000-0  73852-4 0  9993
2 42050  97.4683 108.3804 0010089  81.1715 279.0664 15.23908158 54897
FLOCK 3P-72             
1 42051U 17008DH  18043.45823712  .00002133  00000-0  91786-4 0  9990
2 42051  97.4696 109.1477 0009680  78.6344 281.5980 15.23700860 52595
LEMUR-2-REDFERN-GOES    
1 42059U 98067LA  18043.18876336  .00020522  00000-0  18222-3 0  9997
2 42059  51.6347 264.4465 0006272 120.7085 239.4531 15.68503136 53541
LEMUR-2-TRUTNA          
1 42067U 98067LC  18042.84893988  .00073438  00000-0  33382-3 0  9998
2 42067  51.6415 253.0919 0004127 150.6409 209.4826 15.83180632 53490
LEMUR-2-AUSTINTACIOUS   
1 42068U 98067LD  18043.03313837  .00026999  00000-0  21538-3 0  9991
2 42068  51.6355 262.6534 0005640 115.1767 244.9816 15.70925223 53488
LEMUR-2-TRUTNAHD        
1 42069U 98067LE  18042.85039777  .00022966  00000-0  19648-3 0  9998
2 42069  51.6360 265.2135 0005664 118.7845 241.3721 15.69337470 53488
HAVELSAT                
1 42700U 98067LH  18043.80325254  .00016281  00000-0  16770-3 0  9990
2 42700  51.6366 267.8380 0005512 143.1237 217.0138 15.64988168 42509
SOMP 2                  
1 42701U 98067LJ  18043.79623282  .00014965  00000-0  15820-3 0  9993
2 42701  51.6364 268.5409 0005436 141.4723 218.6661 15.64404617 42481
COLUMBIA                
1 42702U 98067LK  18043.81016167  .00228360  30621-4  67953-3 0  9991
2 42702  51.6261 252.6727 0005663 208.8265 151.2430 15.91996733 42623
SGSAT                   
1 42703U 98067LL  18043.50457903  .00060295  00000-0  36698-3 0  9992
2 42703  51.6338 261.2424 0002479 142.9778 217.1394 15.76860496 42471
CXBN-2                  
1 42704U 98067LM  18043.79342421  .00015975  00000-0  16724-3 0  9995
2 42704  51.6371 268.5303 0002239 101.0202 259.1045 15.64601556 42417
ICECUBE                 
1 42705U 98067LN  18043.44455633  .00021287  00000-0  19170-3 0  9999
2 42705  51.6404 267.7440 0002024  96.8517 263.2710 15.68145316 42450
PHOENIX                 
1 42706U 98067LP  18043.78586025  .00012477  00000-0  13387-3 0  9992
2 42706  51.6365 268.4755 0001780 113.9334 246.1848 15.64222166 42402
X-CUBESAT               
1 42707U 98067LQ  18043.81030358  .00016760  00000-0  17172-3 0  9995
2 42707  51.6343 267.8590 0001880 117.9352 242.1833 15.65107018 42403
QBEE50-LTU-OC           
1 42708U 98067LR  18042.87744053  .00016181  00000-0  16873-3 0  9999
2 42708  51.6368 272.8931 0001927 113.6579 246.4619 15.64690384 42212
ALTAIR PATHFINDER       
1 42711U 98067LS  18043.49414568  .00008879  00000-0  10928-3 0  9997
2 42711  51.6369 273.2720 0004370  81.4317 278.7172 15.61089004 41977
SHARC                   
1 42712U 98067LT  18043.81426400  .00007374  00000-0  95141-4 0  9992
2 42712  51.6385 272.4404 0002762  91.8645 268.2664 15.60141878 42257
ZA-AEROSAT              
1 42713U 98067LU  18043.78385838  .00013074  00000-0  14601-3 0  9993
2 42713  51.6358 269.9560 0002506  85.1581 274.9700 15.63139196 42048
LINK                    
1 42714U 98067LV  18043.79061845  .00026731  00000-0  23973-3 0  9990
2 42714  51.6329 266.2066 0002321 102.6912 257.4344 15.68097728 42203
CSUNSAT 1               
1 42715U 98067LW  18043.45155487  .00013239  00000-0  14637-3 0  9996
2 42715  51.6371 271.4935 0004211  75.6392 284.5070 15.63381839 41991
UPSAT                   
1 42716U 98067LX  18042.87258699  .00021584  00000-0  20503-3 0  9992
2 42716  51.6359 271.3628 0004080 142.4169 217.7113 15.66807298 42076
SPACECUBE               
1 42717U 98067LY  18043.79311425  .00015646  00000-0  16377-3 0  9998
2 42717  51.6355 268.5115 0004077 142.5131 217.6149 15.64620329 41431
HOOPOE                  
1 42718U 98067LZ  18043.45843195  .00017957  00000-0  17897-3 0  9991
2 42718  51.6363 269.2782 0004060 141.7060 218.4225 15.65743445 41398
CHALLENGER              
1 42721U 98067MA  18043.79913283  .00033909  00000-0  27847-3 0  9999
2 42721  51.6340 264.7612 0005935 134.5809 225.5673 15.70096809 41186
NJUST-1                 
1 42722U 98067MB  18043.52582503  .00012093  00000-0  13882-3 0  9993
2 42722  51.6369 271.9866 0006813 124.7210 235.4427 15.62496434 41065
UNSW-ECO                
1 42723U 98067MC  18043.81011012  .00020652  00000-0  20354-3 0  9990
2 42723  51.6373 267.8898 0006217 128.1851 231.9706 15.65905665 41129
DUTHSAT                 
1 42724U 98067MD  18043.78811815  .00030352  00000-0  25769-3 0  9999
2 42724  51.6348 265.4595 0005356 134.8329 225.3104 15.69353653 41078
LILACSAT-1              
1 42725U 98067ME  18043.52101968  .00014273  00000-0  15524-3 0  9995
2 42725  51.6368 271.2055 0005831 127.5281 232.6245 15.63719629 40979
NSIGHT-1                
1 42726U 98067MF  18043.56604829  .00006197  00000-0  83208-4 0  9995
2 42726  51.6385 274.5273 0006405 126.1945 233.9641 15.59400021 40946
SNUSAT-1                
1 42727U 98067MG  18043.46149448  .00013975  00000-0  15254-3 0  9993
2 42727  51.6354 271.5286 0007125  92.6444 267.5366 15.63641633 40932
QBITO                   
1 42728U 98067MH  18043.25106341  .00015889  00000-0  16643-3 0  9995
2 42728  51.6387 271.6808 0003582 132.4173 227.7126 15.64590805 40752
AALTO-2                 
1 42729U 98067MJ  18043.05383619  .00018703  00000-0  19399-3 0  9998
2 42729  51.6368 272.5872 0003555 131.2621 228.8681 15.64702444 40738
SUSAT                   
1 42730U 98067MK  18043.79686207  .00014670  00000-0  15685-3 0  9993
2 42730  51.6361 269.2910 0003576 130.3181 229.8127 15.64139950 40836
I-INSPIRE II            
1 42731U 98067ML  18043.77939984  .00018880  00000-0  18374-3 0  9990
2 42731  51.6354 267.6466 0005900  84.6815 275.4854 15.66292933 40900
POLYITAN-2-SAU          
1 42732U 98067MM  18043.48251432  .00014536  00000-0  15075-3 0  9993
2 42732  51.6361 270.1762 0006187  80.8627 279.3068 15.64917399 40845
SNUSAT-1B               
1 42733U 98067MN  18043.79837053  .00015217  00000-0  16244-3 0  9993
2 42733  51.6362 269.2922 0006385  83.3596 276.8125 15.64134967 40889
EXALTA-1                
1 42734U 98067MP  18043.78481759  .00023179  00000-0  22362-3 0  9995
2 42734  51.6343 267.6810 0007318 106.7594 253.4205 15.66351928 40859
AOXIANG-1               
1 42735U 98067MQ  18043.51046494  .00012176  00000-0  13877-3 0  9996
2 42735  51.6362 271.8718 0007282 122.0372 238.1331 15.62673535 42196
BEEAGLESAT              
1 42736U 98067MR  18043.78253050  .00014448  00000-0  15857-3 0  9998
2 42736  51.6357 269.9360 0007049 122.3586 237.8091 15.63467479 40931
ATLANTIS                
1 42737U 98067MS  18043.54965229  .00110608  00000-0  49610-3 0  9990
2 42737  51.6259 258.4670 0005045 163.5494 196.5673 15.83297592 40957
LEMUR-2-ANGELA          
1 42752U 17019B   18043.28248827  .00001179  00000-0  54474-4 0  9991
2 42752  51.6423 329.6227 0011103 118.8358 241.3738 15.28594338 38001
LEMUR-2-JENNYBARNA      
1 42753U 17019C   18043.31235635  .00001873  00000-0  78026-4 0  9999
2 42753  51.6426 329.0822 0010832 118.3920 241.8153 15.29023831 37964
LEMUR-2-ROBMOORE        
1 42754U 17019D   18043.16385045  .00000750  00000-0  39375-4 0  9991
2 42754  51.6427 330.3251 0010993 120.3435 239.8634 15.28521411 37966
LEMUR-2-SPIROVISION     
1 42755U 17019E   18043.39315685  .00003015  00000-0  11816-3 0  9996
2 42755  51.6415 328.8598 0010826 122.1640 238.0392 15.28933614 37899
UCLSAT                  
1 42765U 17036A   18043.13545937  .00001173  00000-0  55119-4 0  9991
2 42765  97.4186 104.9123 0012829 148.5119 211.6888 15.21500188 35690
LITUANICASAT-2          
1 42768U 17036D   18043.73715330  .00001817  00000-0  85240-4 0  9999
2 42768  97.4195 105.1920 0017202 138.4279 221.8268 15.20821678 35645
LEMUR-2-SHAINAJOHL      
1 42771U 17036G   18043.13943474  .00001259  00000-0  60254-4 0  9997
2 42771  97.4191 104.6097 0016321 139.4585 220.7869 15.20684181 35490
LEMUR-2-XUENITERENCE    
1 42772U 17036H   18043.46159065  .00001273  00000-0  60853-4 0  9990
2 42772  97.4189 104.9415 0015982 138.0282 222.2182 15.20732059 35545
LEMUR-2-LUCYBRYCE       
1 42773U 17036J   18043.11049887  .00001715  00000-0  80327-4 0  9992
2 42773  97.4195 104.6529 0015812 138.7029 221.5405 15.20973972 35499
LEMUR-2-KUNGFOO         
1 42774U 17036K   18042.79311926  .00001320  00000-0  62845-4 0  9999
2 42774  97.4193 104.3150 0015702 139.8321 220.4078 15.20801195 35435
AALTO-1                 
1 42775U 17036L   18042.74174622  .00000766  00000-0  38111-4 0  9997
2 42775  97.4185 104.2185 0015429 138.9322 221.3078 15.20508604 35430
